[{"OBJECT_NAME":"POLAR SCOUT YUKON","OBJECT_ID":"2018-099BC","EPOCH":"2026-03-09T17:15:46.142784","MEAN_MOTION":15.33775706,"ECCENTRICITY":0.0003933,"INCLINATION":97.4761,"RA_OF_ASC_NODE":140.0523,"ARG_OF_PERICENTER":328.7158,"MEAN_ANOMALY":31.385,"EPHEMERIS_TYPE":0,"CLASSIFICATION_TYPE":"U","NORAD_CAT_ID":43808,"ELEMENT_SET_NO":999,"REV_AT_EPOCH":39824,"BSTAR":0.00070317967,"MEAN_MOTION_DOT":0.00022935,"MEAN_MOTION_DDOT":0},{"OBJECT_NAME":"OBJECT B","OBJECT_ID":"2024-153B","EPOCH":"2026-03-09T23:15:18.632160","MEAN_MOTION":15.30512917,"ECCENTRICITY":0.00113423,"INCLINATION":97.6622,"RA_OF_ASC_NODE":204.9195,"ARG_OF_PERICENTER":149.8438,"MEAN_ANOMALY":210.3457,"EPHEMERIS_TYPE":0,"CLASSIFICATION_TYPE":"U","NORAD_CAT_ID":60746,"ELEMENT_SET_NO":999,"REV_AT_EPOCH":8476,"BSTAR":0.00066193599,"MEAN_MOTION_DOT":0.00019515,"MEAN_MOTION_DDOT":0}]
